ALOS-2                  
1 39766U 14029A   26201.75270015  .00000566  00000+0  82710-4 0  9993
2 39766  97.9225 298.4370 0001588  91.3293 268.8100 14.79473928656544
KAZEOSAT 2              
1 40010U 14033A   26201.97715484  .00000575  00000+0  72432-4 0  9990
2 40010  97.5397  39.8016 0007826 198.0039 162.0901 14.85504825653978
HODOYOSHI-4             
1 40011U 14033B   26201.92229137  .00000546  00000+0  64625-4 0  9994
2 40011  97.5465  25.1190 0023206 190.1026 169.9728 14.88194999653822
DEIMOS-2                
1 40013U 14033D   26201.94428187  .00001210  00000+0  11924-3 0  9996
2 40013  97.5783  75.2402 0001505 104.1112 256.0275 14.93808143642763
HODOYOSHI-3             
1 40015U 14033F   26201.93360466  .00000652  00000+0  81153-4 0  9993
2 40015  97.6454   3.6234 0031461 242.1285 117.6742 14.85444729652632
SPOT 7                  
1 40053U 14034A   26201.94634753 -.00000015  00000+0  62425-5 0  9996
2 40053  98.0607 263.5653 0001660  94.4247 265.7143 14.60982879642067
SKYSAT-B                
1 40072U 14037D   26201.88061088  .00000747  00000+0  87855-4 0  9992
2 40072  98.3858 162.7722 0005974 155.2659 204.8843 14.88100507650971
WORLDVIEW-3 (WV-3)      
1 40115U 14048A   26201.92431960  .00000480  00000+0  62401-4 0  9991
2 40115  97.8551 276.2898 0001715 147.4126 212.7195 14.85069654646910
GAOFEN-2                
1 40118U 14049A   26201.95978307  .00000441  00000+0  63966-4 0  9993
2 40118  98.0089 266.1320 0008602 118.5578 241.6501 14.80932473644230
YAOGAN-21               
1 40143U 14053A   26201.91923003  .00003782  00000+0  14615-3 0  9992
2 40143  97.1458 240.7133 0006998 347.4944  12.6121 15.26803140660101
YAOGAN-22               
1 40275U 14063A   26201.87629474 -.00000046  00000+0  30685-5 0  9997
2 40275 100.7770 353.7152 0006910 113.5244 246.6594 13.15531700564247
ASNARO                  
1 40298U 14070A   26201.93960971  .00004214  00000+0  20205-3 0  9992
2 40298  97.3435 277.1448 0004627  74.9317 285.2430 15.19426172649134
YAOGAN-24               
1 40310U 14072A   26201.90694078  .00000583  00000+0  92017-4 0  9994
2 40310  98.1536 339.5335 0015051 151.8126 208.3901 14.76123673628693
CBERS 4                 
1 40336U 14079A   26201.98195624 -.00000059  00000+0 -58890-5 0  9992
2 40336  98.3510 257.7500 0000592  70.2649 289.8601 14.35516559608804
YAOGAN-26               
1 40362U 14088A   26201.94099883  .00014174  00000+0  26720-3 0  9993
2 40362  97.0661 201.3916 0001070 288.8222  71.2913 15.48595496642920
SMAP                    
1 40376U 15003A   26201.92586154  .00000235  00000+0  54458-4 0  9999
2 40376  98.1286 208.5441 0001631  92.8977 267.2412 14.63392106612551
KOMPSAT-3A              
1 40536U 15014A   26201.96496218  .00026651  00000+0  36282-3 0  9998
2 40536  97.6903 195.8423 0055435  55.2315 305.4139 15.55671924627060
SENTINEL-2A             
1 40697U 15028A   26201.92100204 -.00000213  00000+0 -64760-4 0  9995
2 40697  98.5669 276.2918 0001319  95.4508 264.6825 14.30814477578553
GAOFEN-8                
1 40701U 15030A   26201.92684453  .00018429  00000+0  36483-3 0  9993
2 40701  97.6901  37.3504 0009772  77.7112 282.5231 15.47090234616661
CARBONITE 1 (CBNT-1)    
1 40718U 15032D   26201.97168962  .00000532  00000+0  70518-4 0  9994
2 40718  97.6530  18.6281 0014388 177.6844 182.4440 14.83675468594350
YAOGAN-27               
1 40878U 15040A   26201.93382619  .00000289  00000+0  87229-3 0  9998
2 40878 100.1180 186.8550 0008749 132.6221 227.5632 13.16072783522103
GAOFEN-9 01             
1 40894U 15047A   26201.93563394  .00000589  00000+0  78383-4 0  9999
2 40894  97.6263 236.0953 0028048  32.3094 327.9831 14.82941840585193
YAOGAN-28               
1 41026U 15064A   26201.92588743  .00004702  00000+0  17554-3 0  9993
2 41026  97.3115 339.5173 0011947  75.4325 284.8239 15.27804368595830
YAOGAN-29               
1 41038U 15069A   26201.97902111  .00000586  00000+0  78519-4 0  9990
2 41038  98.0020 230.6633 0000126  29.0162 331.1059 14.83110236575636
KENT RIDGE 1            
1 41167U 15077B   26201.82102672  .00002508  00000+0  71463-4 0  9997
2 41167  14.9808  15.8171 0008266 354.2128   5.8098 15.23302681586236
GAOFEN-4                
1 41194U 15083A   26201.28282259 -.00000337  00000+0  00000+0 0  9997
2 41194   0.4407  83.8785 0004167 121.8602 299.8332  1.00270897 38868
JASON-3                 
1 41240U 16002A   26201.94449878 -.00000057  00000+0  21483-4 0  9998
2 41240  66.0416  54.8643 0008131 270.3488  89.6599 12.87628888491593
SENTINEL-3A             
1 41335U 16011A   26201.94901229  .00000034  00000+0  32107-4 0  9995
2 41335  98.6232 268.8448 0001309  88.9679 271.1651 14.26740781542877
ZIYUAN 3-02 (ZY 3-02)   
1 41556U 16033A   26201.93151442  .00003511  00000+0  15884-3 0  9992
2 41556  97.3819 277.0573 0014681 165.3259 194.8406 15.21468621563116
CARTOSAT-2C             
1 41599U 16040A   26201.98056008  .00002652  00000+0  12883-3 0  9995
2 41599  97.4459 261.4903 0009003  26.9781 333.1920 15.19287546558847
